{
  "norad_id": 62517,
  "name": "STARLINK-11512 [DTC]",
  "history": [
    {
      "epoch": "2026-03-28T15:23:47.683104Z",
      "apogee_km": 357.0766934939311,
      "perigee_km": 355.04027277983096,
      "latitude_deg": 6.714251386573963e-08,
      "longitude_deg": -100.91653037027845,
      "height_km": 356.25230830604306,
      "semi_major_axis_km": 6734.195483136881,
      "eccentricity": 0.0001512,
      "inclination_deg": 42.9987,
      "raan_deg": 316.0912,
      "arg_perigee_deg": 245.5385,
      "mean_anomaly_deg": 114.5325,
      "mean_motion_rev_day": 15.70992759
    }
  ]
}