{"fetched_at":"2026-03-30T13:17:50Z","count":15418,"tles":[{"name":"STARLINK-11512 [DTC]","line1":"1 62517U 25004G   26087.64152411  .00235245  00000+0  17740-2 0  9990","line2":"2 62517  42.9987 316.0912 0001512 245.5385 114.5325 15.70992759 70197","category":"Starlink"}]}